{"type": "FeatureCollection", "features": [ {"type": "Feature", "properties": {"norad_id": 30545, "name": "FENGYUN 1C DEB", "group": "fengyun-1c-debris", "lat": 38.34650900183871, "lon": 26.491984369645063, "alt_km": 1403.859272529945, "timestamp": "2025-12-13T03:42:11.549997+00:00", "meta": {"OBJECT_NAME": "FENGYUN 1C DEB", "OBJECT_ID": "1999-025AKK", "EPOCH": "2025-12-10T13:12:25.242624", "MEAN_MOTION": 13.20779599, "ECCENTRICITY": 0.0472742, "INCLINATION": 98.999, "RA_OF_ASC_NODE": 197.0453, "ARG_OF_PERICENTER": 16.2017, "MEAN_ANOMALY": 345.365, "EPHEMERIS_TYPE": 0, "CLASSIFICATION_TYPE": "U", "NORAD_CAT_ID": 30545, "ELEMENT_SET_NO": 999, "REV_AT_EPOCH": 90901, "BSTAR": 0.00075506, "MEAN_MOTION_DOT": 5.17e-06, "MEAN_MOTION_DDOT": 0}, "tle": {"line1": "1 30545U 99025AKK 25344.55029216  .00000517  00000+0  75506-3 0  9998", "line2": "2 30545  98.9990 197.0453 0472742  16.2017 345.3650 13.20779599909012"}}, "geometry": {"type": "Point", "coordinates": [26.491984369645063, 38.34650900183871]}}, {"type": "Feature", "properties": {"norad_id": 30546, "name": "FENGYUN 1C DEB", "group": "fengyun-1c-debris", "lat": 35.144153344751516, "lon": 29.5614654510467, "alt_km": 542.591269310532, "timestamp": "2025-12-13T03:42:11.550009+00:00", "meta": {"OBJECT_NAME": "FENGYUN 1C DEB", "OBJECT_ID": "1999-025AKL", "EPOCH": "2025-12-12T01:54:09.432576", "MEAN_MOTION": 14.87139999, "ECCENTRICITY": 0.00924761, "INCLINATION": 98.9085, "RA_OF_ASC_NODE": 202.0169, "ARG_OF_PERICENTER": 164.5855, "MEAN_ANOMALY": 348.0033, "EPHEMERIS_TYPE": 0, "CLASSIFICATION_TYPE": "U", "NORAD_CAT_ID": 30546, "ELEMENT_SET_NO": 999, "REV_AT_EPOCH": 447, "BSTAR": 0.0012677065, "MEAN_MOTION_DOT": 0.00012266, "MEAN_MOTION_DDOT": 0}, "tle": {"line1": "1 30546U 99025AKL 25346.07927584  .00012266  00000+0  12677-2 0  9996", "line2": "2 30546  98.9085 202.0169 0092476 164.5855 348.0033 14.87139999  4477"}}, "geometry": {"type": "Point", "coordinates": [29.5614654510467, 35.144153344751516]}}, {"type": "Feature", "properties": {"norad_id": 30547, "name": "FENGYUN 1C DEB", "group": "fengyun-1c-debris", "lat": 35.57845966758125, "lon": 16.603791700129776, "alt_km": 742.3173394945898, "timestamp": "2025-12-13T03:42:11.550019+00:00", "meta": {"OBJECT_NAME": "FENGYUN 1C DEB", "OBJECT_ID": "1999-025AKM", "EPOCH": "2025-12-12T07:48:04.441824", "MEAN_MOTION": 14.37749618, "ECCENTRICITY": 0.00951513, "INCLINATION": 98.9022, "RA_OF_ASC_NODE": 189.3075, "ARG_OF_PERICENTER": 218.6615, "MEAN_ANOMALY": 316.5381, "EPHEMERIS_TYPE": 0, "CLASSIFICATION_TYPE": "U", "NORAD_CAT_ID": 30547, "ELEMENT_SET_NO": 999, "REV_AT_EPOCH": 98716, "BSTAR": 0.00043884443, "MEAN_MOTION_DOT": 1.342e-05, "MEAN_MOTION_DDOT": 0}, "tle": {"line1": "1 30547U 99025AKM 25346.32505141  .00001342  00000+0  43884-3 0  9994", "line2": "2 30547  98.9022 189.3075 0095151 218.6615 316.5381 14.37749618987162"}}, "geometry": {"type": "Point", "coordinates": [16.603791700129776, 35.57845966758125]}}, {"type": "Feature", "properties": {"norad_id": 30548, "name": "FENGYUN 1C DEB", "group": "fengyun-1c-debris", "lat": 24.171936863089964, "lon": -119.73436420053969, "alt_km": 769.7931056636126, "timestamp": "2025-12-13T03:42:11.550029+00:00", "meta": {"OBJECT_NAME": "FENGYUN 1C DEB", "OBJECT_ID": "1999-025AKN", "EPOCH": "2025-12-10T12:13:24.269952", "MEAN_MOTION": 14.26844945, "ECCENTRICITY": 0.00687565, "INCLINATION": 99.6812, "RA_OF_ASC_NODE": 241.7363, "ARG_OF_PERICENTER": 341.7334, "MEAN_ANOMALY": 143.2043, "EPHEMERIS_TYPE": 0, "CLASSIFICATION_TYPE": "U", "NORAD_CAT_ID": 30548, "ELEMENT_SET_NO": 999, "REV_AT_EPOCH": 14063, "BSTAR": 0.003249128, "MEAN_MOTION_DOT": 8.037e-05, "MEAN_MOTION_DDOT": 0}, "tle": {"line1": "1 30548U 99025AKN 25344.50930868  .00008037  00000+0  32491-2 0  9990", "line2": "2 30548  99.6812 241.7363 0068756 341.7334 143.2043 14.26844945140638"}}, "geometry": {"type": "Point", "coordinates": [-119.73436420053969, 24.171936863089964]}}, {"type": "Feature", "properties": {"norad_id": 30549, "name": "FENGYUN 1C DEB", "group": "fengyun-1c-debris", "lat": 11.788179010204146, "lon": -70.65540932810329, "alt_km": 885.9337460573488, "timestamp": "2025-12-13T03:42:11.550039+00:00", "meta": {"OBJECT_NAME": "FENGYUN 1C DEB", "OBJECT_ID": "1999-025AKP", "EPOCH": "2025-12-03T07:39:14.923872", "MEAN_MOTION": 13.98584639, "ECCENTRICITY": 0.0288262, "INCLINATION": 98.4796, "RA_OF_ASC_NODE": 98.4482, "ARG_OF_PERICENTER": 283.4344, "MEAN_ANOMALY": 73.4847, "EPHEMERIS_TYPE": 0, "CLASSIFICATION_TYPE": "U", "NORAD_CAT_ID": 30549, "ELEMENT_SET_NO": 999, "REV_AT_EPOCH": 95162, "BSTAR": 0.0024216, "MEAN_MOTION_DOT": 4.917e-05, "MEAN_MOTION_DDOT": 0}, "tle": {"line1": "1 30549U 99025AKP 25337.31892273  .00004917  00000+0  24216-2 0  9998", "line2": "2 30549  98.4796  98.4482 0288262 283.4344  73.4847 13.98584639951629"}}, "geometry": {"type": "Point", "coordinates": [-70.65540932810329, 11.788179010204146]}}, {"type": "Feature", "properties": {"norad_id": 30550, "name": "FENGYUN 1C DEB", "group": "fengyun-1c-debris", "lat": -22.179710214678757, "lon": -113.8274428024155, "alt_km": 817.7985168752439, "timestamp": "2025-12-13T03:42:11.550049+00:00", "meta": {"OBJECT_NAME": "FENGYUN 1C DEB", "OBJECT_ID": "1999-025AKQ", "EPOCH": "2025-12-09T11:38:59.399808", "MEAN_MOTION": 14.02348674, "ECCENTRICITY": 0.01331679, "INCLINATION": 99.0528, "RA_OF_ASC_NODE": 238.8009, "ARG_OF_PERICENTER": 306.2736, "MEAN_ANOMALY": 237.9374, "EPHEMERIS_TYPE": 0, "CLASSIFICATION_TYPE": "U", "NORAD_CAT_ID": 30550, "ELEMENT_SET_NO": 999, "REV_AT_EPOCH": 95349, "BSTAR": 0.0044165795, "MEAN_MOTION_DOT": 7.287e-05, "MEAN_MOTION_DDOT": 0}, "tle": {"line1": "1 30550U 99025AKQ 25343.48540972  .00007287  00000+0  44166-2 0  9990", "line2": "2 30550  99.0528 238.8009 0133167 306.2736 237.9374 14.02348674953490"}}, "geometry": {"type": "Point", "coordinates": [-113.8274428024155, -22.179710214678757]}}, {"type": "Feature", "properties": {"norad_id": 30552, "name": "FENGYUN 1C DEB", "group": "fengyun-1c-debris", "lat": 62.44972572613309, "lon": 101.4998468983723, "alt_km": 714.3507347139439, "timestamp": "2025-12-13T03:42:11.550059+00:00", "meta": {"OBJECT_NAME": "FENGYUN 1C DEB", "OBJECT_ID": "1999-025AKS", "EPOCH": "2025-12-12T00:59:56.286816", "MEAN_MOTION": 14.54741685, "ECCENTRICITY": 0.00147687, "INCLINATION": 98.8347, "RA_OF_ASC_NODE": 117.6704, "ARG_OF_PERICENTER": 253.9764, "MEAN_ANOMALY": 105.9805, "EPHEMERIS_TYPE": 0, "CLASSIFICATION_TYPE": "U", "NORAD_CAT_ID": 30552, "ELEMENT_SET_NO": 999, "REV_AT_EPOCH": 97642, "BSTAR": 0.0044279337, "MEAN_MOTION_DOT": 0.00018991, "MEAN_MOTION_DDOT": 0}, "tle": {"line1": "1 30552U 99025AKS 25346.04162369  .00018991  00000+0  44279-2 0  9996", "line2": "2 30552  98.8347 117.6704 0014768 253.9764 105.9805 14.54741685976425"}}, "geometry": {"type": "Point", "coordinates": [101.4998468983723, 62.44972572613309]}}, {"type": "Feature", "properties": {"norad_id": 30553, "name": "FENGYUN 1C DEB", "group": "fengyun-1c-debris", "lat": 33.004918370249534, "lon": -91.90988373408662, "alt_km": 637.1264542137715, "timestamp": "2025-12-13T03:42:11.550070+00:00", "meta": {"OBJECT_NAME": "FENGYUN 1C DEB", "OBJECT_ID": "1999-025AKT", "EPOCH": "2025-12-12T05:50:12.313248", "MEAN_MOTION": 14.72248736, "ECCENTRICITY": 0.00207402, "INCLINATION": 99.1283, "RA_OF_ASC_NODE": 81.0735, "ARG_OF_PERICENTER": 152.5828, "MEAN_ANOMALY": 207.6475, "EPHEMERIS_TYPE": 0, "CLASSIFICATION_TYPE": "U", "NORAD_CAT_ID": 30553, "ELEMENT_SET_NO": 999, "REV_AT_EPOCH": 98466, "BSTAR": 0.0050152046, "MEAN_MOTION_DOT": 0.0003185, "MEAN_MOTION_DDOT": 0}, "tle": {"line1": "1 30553U 99025AKT 25346.24319807  .00031850  00000+0  50152-2 0  9996", "line2": "2 30553  99.1283  81.0735 0020740 152.5828 207.6475 14.72248736984666"}}, "geometry": {"type": "Point", "coordinates": [-91.90988373408662, 33.004918370249534]}}, {"type": "Feature", "properties": {"norad_id": 30555, "name": "FENGYUN 1C DEB", "group": "fengyun-1c-debris", "lat": -35.84083163209162, "lon": -145.71542870338882, "alt_km": 810.8248513872732, "timestamp": "2025-12-13T03:42:11.550080+00:00", "meta": {"OBJECT_NAME": "FENGYUN 1C DEB", "OBJECT_ID": "1999-025AKV", "EPOCH": "2025-12-12T03:16:46.377696", "MEAN_MOTION": 14.20800902, "ECCENTRICITY": 0.00424741, "INCLINATION": 98.7572, "RA_OF_ASC_NODE": 39.6688, "ARG_OF_PERICENTER": 273.218, "MEAN_ANOMALY": 141.1469, "EPHEMERIS_TYPE": 0, "CLASSIFICATION_TYPE": "U", "NORAD_CAT_ID": 30555, "ELEMENT_SET_NO": 999, "REV_AT_EPOCH": 96927, "BSTAR": 0.002032281, "MEAN_MOTION_DOT": 4.386e-05, "MEAN_MOTION_DDOT": 0}, "tle": {"line1": "1 30555U 99025AKV 25346.13664789  .00004386  00000+0  20323-2 0  9999", "line2": "2 30555  98.7572  39.6688 0042474 273.2180 141.1469 14.20800902969277"}}, "geometry": {"type": "Point", "coordinates": [-145.71542870338882, -35.84083163209162]}}, {"type": "Feature", "properties": {"norad_id": 30556, "name": "FENGYUN 1C DEB", "group": "fengyun-1c-debris", "lat": -25.352708913200445, "lon": -15.405392702646553, "alt_km": 901.1845315529199, "timestamp": "2025-12-13T03:42:11.550090+00:00", "meta": {"OBJECT_NAME": "FENGYUN 1C DEB", "OBJECT_ID": "1999-025AKW", "EPOCH": "2025-12-12T05:51:55.257120", "MEAN_MOTION": 14.0136677, "ECCENTRICITY": 0.00679604, "INCLINATION": 98.7819, "RA_OF_ASC_NODE": 339.5188, "ARG_OF_PERICENTER": 238.9207, "MEAN_ANOMALY": 186.8485, "EPHEMERIS_TYPE": 0, "CLASSIFICATION_TYPE": "U", "NORAD_CAT_ID": 30556, "ELEMENT_SET_NO": 999, "REV_AT_EPOCH": 96250, "BSTAR": 0.00040980854, "MEAN_MOTION_DOT": 5.88e-06, "MEAN_MOTION_DDOT": 0}, "tle": {"line1": "1 30556U 99025AKW 25346.24438955  .00000588  00000+0  40981-3 0  9999", "line2": "2 30556  98.7819 339.5188 0067960 238.9207 186.8485 14.01366770962506"}}, "geometry": {"type": "Point", "coordinates": [-15.405392702646553, -25.352708913200445]}}]}